NORAD_CAT_ID,OBJECT_NAME,OBJECT_TYPE,EPOCH,MEAN_MOTION,ECCENTRICITY,INCLINATION,RA_OF_ASC_NODE,ARG_OF_PERICENTER,MEAN_ANOMALY,BSTAR,MEAN_MOTION_DOT,MEAN_MOTION_DDOT,TLE_LINE0,TLE_LINE1,TLE_LINE2,SEMIMAJOR_AXIS,PERIOD,APOGEE,PERIGEE,DECAYED
53825.0,STARLINK-4751,PAYLOAD,2024-06-24 03:12:47,15.08845138,0.0001326,53.2157,223.5147,88.1746,271.9398,0.00013168,1.809e-05,0.0,0 STARLINK-4751,1 53825U 22114H   24176.13388816  .00001809  00000-0  13168-3 0  9991,2 53825  53.2157 223.5147 0001326  88.1746 271.9398 15.08845138 98153,6917.865,95.437,540.647,538.812,0.0
53825.0,STARLINK-4751,PAYLOAD,2024-06-24 09:34:20,15.08844604,0.0001289,53.2155,222.3247,91.5018,268.6122,0.00012084,1.636e-05,0.0,0 STARLINK-4751,1 53825U 22114H   24176.39884818  .00001636  00000-0  12084-3 0  9996,2 53825  53.2155 222.3247 0001289  91.5018 268.6122 15.08844604 98736,6917.866,95.437,540.623,538.84,0.0
53825.0,STARLINK-4751,PAYLOAD,2024-06-25 09:25:07,15.08843102,0.0001352,53.2156,217.8643,89.9265,270.1882,3.685e-05,2.99e-06,0.0,0 STARLINK-4751,1 53825U 22114H   24177.39244895  .00000299  00000-0  36850-4 0  9994,2 53825  53.2156 217.8643 0001352  89.9265 270.1882 15.08843102 98342,6917.871,95.437,540.671,538.801,0.0
53825.0,STARLINK-4751,PAYLOAD,2024-06-26 09:15:54,15.08838367,0.0001369,53.2154,213.4048,91.4891,268.6257,1.9149e-05,1.7e-07,0.0,0 STARLINK-4751,1 53825U 22114H   24178.38605133  .00000017  00000-0  19149-4 0  9990,2 53825  53.2154 213.4048 0001369  91.4891 268.6257 15.08838367 98493,6917.885,95.438,540.697,538.803,0.0
53825.0,STARLINK-4751,PAYLOAD,2024-06-27 18:39:01,15.08836475,0.0001334,53.215,207.1587,90.6197,269.4948,5.3533e-05,5.64e-06,0.0,0 STARLINK-4751,1 53825U 22114H   24179.77709513  .00000564  00000-0  53533-4 0  9993,2 53825  53.2150 207.1587 0001334  90.6197 269.4948 15.08836475 98707,6917.891,95.438,540.679,538.833,0.0
53825.0,STARLINK-4751,PAYLOAD,2024-06-28 08:57:29,15.08837348,0.0001382,53.2152,204.4835,97.4701,262.6448,8.6978e-05,1.097e-05,0.0,0 STARLINK-4751,1 53825U 22114H   24180.37325566  .00001097  00000-0  86978-4 0  9994,2 53825  53.2152 204.4835 0001382  97.4701 262.6448 15.08837348 99334,6917.888,95.438,540.71,538.797,0.0
53825.0,STARLINK-4751,PAYLOAD,2024-06-29 05:37:30,15.08839813,0.0001366,53.2153,200.6176,96.7343,263.3805,0.0001109,1.477e-05,0.0,0 STARLINK-4751,1 53825U 22114H   24181.23437586  .00001477  00000-0  11090-3 0  9990,2 53825  53.2153 200.6176 0001366  96.7343 263.3805 15.08839813 98925,6917.881,95.438,540.691,538.801,0.0
53825.0,STARLINK-4751,PAYLOAD,2024-06-29 10:23:39,15.08839566,0.0001312,53.2149,199.7246,91.5789,268.5353,9.6351e-05,1.246e-05,0.0,0 STARLINK-4751,1 53825U 22114H   24181.43309674  .00001246  00000-0  96351-4 0  9996,2 53825  53.2149 199.7246 0001312  91.5789 268.5353 15.08839566 99497,6917.882,95.438,540.654,538.839,0.0
53825.0,STARLINK-4751,PAYLOAD,2024-06-29 18:20:35,15.08841915,0.0001318,53.2149,198.2373,86.0132,274.1011,9.5131e-05,1.227e-05,0.0,0 STARLINK-4751,1 53825U 22114H   24181.76429575  .00001227  00000-0  95131-4 0  9999,2 53825  53.2149 198.2373 0001318  86.0132 274.1011 15.08841915 99540,6917.875,95.437,540.651,538.828,0.0
53825.0,STARLINK-4751,PAYLOAD,2024-06-30 08:39:03,15.08841019,0.0001318,53.2147,195.5616,85.8179,274.2963,5.6689e-05,6.14e-06,0.0,0 STARLINK-4751,1 53825U 22114H   24182.36045763  .00000614  00000-0  56689-4 0  9993,2 53825  53.2147 195.5616 0001318  85.8179 274.2963 15.08841019 99098,6917.877,95.437,540.654,538.83,0.0
53825.0,STARLINK-4751,PAYLOAD,2024-06-30 18:11:22,15.0884358,0.0001334,53.2149,193.7773,85.6132,274.5013,7.7252e-05,9.42e-06,0.0,0 STARLINK-4751,1 53825U 22114H   24182.75789492  .00000942  00000-0  77252-4 0  9993,2 53825  53.2149 193.7773 0001334  85.6132 274.5013 15.08843580 99699,6917.869,95.437,540.657,538.812,0.0
53825.0,STARLINK-4751,PAYLOAD,2024-07-01 10:05:13,15.08841829,0.0001379,53.2149,190.804,85.9444,274.1705,6.9361e-05,8.16e-06,0.0,0 STARLINK-4751,1 53825U 22114H   24183.42029617  .00000816  00000-0  69361-4 0  9996,2 53825  53.2149 190.8040 0001379  85.9444 274.1705 15.08841829 99252,6917.875,95.437,540.694,538.786,0.0
53825.0,STARLINK-4751,PAYLOAD,2024-07-01 18:02:09,15.08843687,0.0001383,53.2148,189.3172,85.6942,274.4208,6.5966e-05,7.62e-06,0.0,0 STARLINK-4751,1 53825U 22114H   24183.75149438  .00000762  00000-0  65966-4 0  9993,2 53825  53.2148 189.3172 0001383  85.6942 274.4208 15.08843687 99845,6917.869,95.437,540.691,538.777,0.0
53825.0,STARLINK-4751,PAYLOAD,2024-07-02 09:56:00,15.08840552,0.0001399,53.2156,186.3423,92.0242,268.0911,4.7668e-05,4.71e-06,0.0,0 STARLINK-4751,1 53825U 22114H   24184.41389670  .00000471  00000-0  47668-4 0  9997,2 53825  53.2156 186.3423 0001399  92.0242 268.0911 15.08840552 99941,6917.879,95.438,540.712,538.776,0.0
53825.0,STARLINK-4751,PAYLOAD,2024-07-03 05:00:38,15.0883589,0.0001376,53.2155,182.7744,89.9586,270.1564,1.8851e-05,1.2e-07,0.0,0 STARLINK-4751,1 53825U 22114H   24185.20878022  .00000012  00000-0  18851-4 0  9992,2 53825  53.2155 182.7744 0001376  89.9586 270.1564 15.08835890 99528,6917.893,95.438,540.71,538.806,0.0
53825.0,STARLINK-4751,PAYLOAD,2024-07-03 20:54:29,15.08838211,0.0001353,53.2154,179.801,90.2971,269.8176,1.3502e-05,-7.3e-07,0.0,0 STARLINK-4751,1 53825U 22114H   24185.87117898 -.00000073  00000-0  13502-4 0  9998,2 53825  53.2154 179.8010 0001353  90.2971 269.8176 15.08838211100165,6917.886,95.438,540.687,538.815,0.0
53825.0,STARLINK-4751,PAYLOAD,2024-07-04 11:12:57,15.08840735,0.0001337,53.2154,177.1247,91.3368,268.7777,4.2106e-05,3.82e-06,0.0,0 STARLINK-4751,1 53825U 22114H   24186.46733661  .00000382  00000-0  42106-4 0  9990,2 53825  53.2154 177.1247 0001337  91.3368 268.7777 15.08840735 99719,6917.878,95.438,540.668,538.818,0.0
53825.0,STARLINK-4751,PAYLOAD,2024-07-04 20:45:17,15.08833806,0.0001342,53.2155,175.3411,94.1853,265.9292,1.5589e-05,-4e-07,0.0,0 STARLINK-4751,1 53825U 22114H   24186.86478189 -.00000040  00000-0  15589-4 0  9992,2 53825  53.2155 175.3411 0001342  94.1853 265.9292 15.08833806 99777,6917.899,95.438,540.693,538.836,0.0
53825.0,STARLINK-4751,PAYLOAD,2024-07-04 22:20:40,15.08833721,0.0001344,53.2154,175.0437,94.2068,265.9078,1.3914e-05,-6.6e-07,0.0,0 STARLINK-4751,1 53825U 22114H   24186.93102216 -.00000066  00000-0  13914-4 0  9993,2 53825  53.2154 175.0437 0001344  94.2068 265.9078 15.08833721100324,6917.9,95.438,540.694,538.835,0.0
53825.0,STARLINK-4751,PAYLOAD,2024-07-05 11:03:45,15.08838403,0.0001335,53.2155,172.6646,92.6182,267.4963,6.7934e-05,7.93e-06,0.0,0 STARLINK-4751,1 53825U 22114H   24187.46093891  .00000793  00000-0  67934-4 0  9997,2 53825  53.2155 172.6646 0001335  92.6182 267.4963 15.08838403100400,6917.885,95.438,540.674,538.827,0.0
53825.0,STARLINK-4751,PAYLOAD,2024-07-05 22:11:27,15.08834098,0.0001328,53.2154,170.5832,93.7597,266.3547,5.5606e-06,-1.99e-06,0.0,0 STARLINK-4751,1 53825U 22114H   24187.92462412 -.00000199  00000-0  55606-5 0  9992,2 53825  53.2154 170.5832 0001328  93.7597 266.3547 15.08834098100476,6917.898,95.438,540.682,538.845,0.0
53825.0,STARLINK-4751,PAYLOAD,2024-07-06 04:33:00,15.08833372,0.0001321,53.2155,169.3937,94.0706,266.0437,6.2571e-06,-1.88e-06,0.0,0 STARLINK-4751,1 53825U 22114H   24188.18958535 -.00000188  00000-0  62571-5 0  9994,2 53825  53.2155 169.3937 0001321  94.0706 266.0437 15.08833372 99979,6917.901,95.438,540.68,538.852,0.0
53825.0,STARLINK-4751,PAYLOAD,2024-07-06 10:54:32,15.08837789,0.0001319,53.2155,168.2042,93.9563,266.158,2.0909e-05,4.5e-07,0.0,0 STARLINK-4751,1 53825U 22114H   24188.45454264  .00000045  00000-0  20909-4 0  9993,2 53825  53.2155 168.2042 0001319  93.9563 266.1580 15.08837789100553,6917.887,95.438,540.665,538.84,0.0
53825.0,STARLINK-4751,PAYLOAD,2024-07-06 22:02:14,15.08836758,0.0001322,53.2155,166.1226,94.3166,265.7977,-2.4261e-05,-6.74e-06,0.0,0 STARLINK-4751,1 53825U 22114H   24188.91822482 -.00000674  00000-0 -24261-4 0  9990,2 53825  53.2155 166.1226 0001322  94.3166 265.7977 15.08836758100620,6917.89,95.438,540.67,538.841,0.0
53825.0,STARLINK-4751,PAYLOAD,2024-07-07 09:09:56,15.08838336,0.0001315,53.2156,164.0408,92.6445,267.4698,5.2641e-05,5.5e-06,0.0,0 STARLINK-4751,1 53825U 22114H   24189.38190278  .00000550  00000-0  52641-4 0  9997,2 53825  53.2156 164.0408 0001315  92.6445 267.4698 15.08838336100154,6917.885,95.438,540.66,538.841,0.0
53825.0,STARLINK-4751,PAYLOAD,2024-07-07 20:17:35,15.08867217,0.0001295,53.2156,161.959,94.622,265.492,0.0002437,3.596e-05,0.0,0 STARLINK-4751,1 53825U 22114H   24189.84555443  .00003596  00000-0  24370-3 0  9997,2 53825  53.2156 161.9590 0001295  94.6220 265.4920 15.08867217100226,6917.797,95.436,540.558,538.766,0.0
53825.0,STARLINK-4751,PAYLOAD,2024-07-08 07:25:20,15.08829836,0.0001242,53.2157,159.8777,86.8781,273.2354,2.4078e-05,9.5e-07,0.0,0 STARLINK-4751,1 53825U 22114H   24190.30926327  .00000095  00000-0  24078-4 0  9990,2 53825  53.2157 159.8777 0001242  86.8781 273.2354 15.08829836100297,6917.911,95.438,540.636,538.917,0.0
53825.0,STARLINK-4751,PAYLOAD,2024-07-08 21:43:48,15.08831305,0.0001293,53.2157,157.2015,90.1188,269.9952,-3.2621e-05,-8.07e-06,0.0,0 STARLINK-4751,1 53825U 22114H   24190.90542589 -.00000807  00000-0 -32621-4 0  9996,2 53825  53.2157 157.2015 0001293  90.1188 269.9952 15.08831305100929,6917.907,95.438,540.666,538.877,0.0
53825.0,STARLINK-4751,PAYLOAD,2024-07-09 07:16:07,15.08832482,0.0001348,53.2152,155.4169,88.1892,271.9254,-6.5758e-05,-1.334e-05,0.0,0 STARLINK-4751,1 53825U 22114H   24191.30286103 -.00001334  00000-0 -65758-4 0  9991,2 53825  53.2152 155.4169 0001348  88.1892 271.9254 15.08832482100446,6917.903,95.438,540.701,538.836,0.0
53825.0,STARLINK-4751,PAYLOAD,2024-07-09 15:13:02,15.08836695,0.0001314,53.2152,153.9301,89.0947,271.0196,-2.7175e-05,-7.2e-06,0.0,0 STARLINK-4751,1 53825U 22114H   24191.63405995 -.00000720  00000-0 -27175-4 0  9998,2 53825  53.2152 153.9301 0001314  89.0947 271.0196 15.08836695101033,6917.89,95.438,540.665,538.846,0.0
